start=new Date('2022-02-08T00:00:00.000Z').valueOf();
sats=[{"REV_AT_EPOCH":"10499","CENTER_NAME":"EARTH","LAUNCH_DATE":"2020-03-18","CLASSIFICATION_TYPE":"U","SEMIMAJOR_AXIS":"6925.378","MEAN_ANOMALY":"287.9965","COUNTRY_CODE":"US","OBJECT_ID":"2020-019BK","BSTAR":"0.00006620900000","TLE_LINE1":"1 45417U 20019BK  22038.64482293  .00000705  00000-0  66209-4 0  9995","EPHEMERIS_TYPE":"0","PERIAPSIS":"546.290","RCS_SIZE":"LARGE","TIME_SYSTEM":"UTC","REF_FRAME":"TEME","RA_OF_ASC_NODE":"20.1931","DECAY_DATE":null,"MEAN_MOTION_DDOT":"0.0000000000000","INCLINATION":"53.0541","OBJECT_TYPE":"PAYLOAD","NORAD_CAT_ID":"45417","MEAN_MOTION_DOT":"0.00000705","EPOCH":"2022-02-07T15:28:32.701152","FILE":"3294507","ECCENTRICITY":"0.00013760","ELEMENT_SET_NO":"999","GP_ID":"195487558","OBJECT_NAME":"STARLINK-1286","SITE":"AFETR","TLE_LINE2":"2 45417  53.0541  20.1931 0001376  72.1174 287.9965 15.06390350104997","APOAPSIS":"548.196","MEAN_ELEMENT_THEORY":"SGP4","ARG_OF_PERICENTER":"72.1174","PERIOD":"95.593","MEAN_MOTION":"15.06390350"},{"MEAN_ELEMENT_THEORY":"SGP4","APOAPSIS":"560.562","SITE":"AFETR","TLE_LINE2":"2 45418  53.0012  40.0276 0001479  84.3126 275.8029 15.02388358104426","OBJECT_NAME":"STARLINK-1299","MEAN_MOTION":"15.02388358","PERIOD":"95.847","ARG_OF_PERICENTER":"84.3126","OBJECT_TYPE":"PAYLOAD","INCLINATION":"53.0012","DECAY_DATE":null,"MEAN_MOTION_DDOT":"0.0000000000000","GP_ID":"195487287","ELEMENT_SET_NO":"999","ECCENTRICITY":"0.00014790","FILE":"3294518","EPOCH":"2022-02-07T17:26:15.457920","MEAN_MOTION_DOT":"0.00009440","NORAD_CAT_ID":"45418","REF_FRAME":"TEME","TIME_SYSTEM":"UTC","RCS_SIZE":"LARGE","PERIAPSIS":"558.510","EPHEMERIS_TYPE":"0","RA_OF_ASC_NODE":"40.0276","SEMIMAJOR_AXIS":"6937.671","CENTER_NAME":"EARTH","LAUNCH_DATE":"2020-03-18","CLASSIFICATION_TYPE":"U","REV_AT_EPOCH":"10442","TLE_LINE1":"1 45418U 20019BL  22038.72656780  .00009440  00000-0  72480-3 0  9991","COUNTRY_CODE":"US","BSTAR":"0.00072480000000","OBJECT_ID":"2020-019BL","MEAN_ANOMALY":"275.8029"},{"PERIOD":"95.593","MEAN_MOTION":"15.06378731","ARG_OF_PERICENTER":"68.9844","MEAN_ELEMENT_THEORY":"SGP4","SITE":"AFETR","TLE_LINE2":"2 45419  53.0564  21.6820 0001548  68.9844 291.1310 15.06378731104681","APOAPSIS":"548.351","OBJECT_NAME":"STARLINK-1308","ECCENTRICITY":"0.00015480","ELEMENT_SET_NO":"999","GP_ID":"195478251","MEAN_MOTION_DOT":"-0.00001757","FILE":"3294379","EPOCH":"2022-02-07T07:25:32.788992","NORAD_CAT_ID":"45419","OBJECT_TYPE":"PAYLOAD","INCLINATION":"53.0564","MEAN_MOTION_DDOT":"0.0000000000000","DECAY_DATE":null,"RA_OF_ASC_NODE":"21.6820","REF_FRAME":"TEME","TIME_SYSTEM":"UTC","RCS_SIZE":"LARGE","EPHEMERIS_TYPE":"0","PERIAPSIS":"546.207","COUNTRY_CODE":"US","BSTAR":"-0.00009915700000","OBJECT_ID":"2020-019BM","TLE_LINE1":"1 45419U 20019BM  22038.30940728 -.00001757  00000-0 -99157-4 0  9990","MEAN_ANOMALY":"291.1310","SEMIMAJOR_AXIS":"6925.414","REV_AT_EPOCH":"10468","LAUNCH_DATE":"2020-03-18","CLASSIFICATION_TYPE":"U","CENTER_NAME":"EARTH"},{"PERIOD":"95.594","MEAN_MOTION":"15.06373358","ARG_OF_PERICENTER":"68.3584","SITE":"AFETR","TLE_LINE2":"2 45531  53.0563 320.9287 0001613  68.3584 291.7577 15.06373358100334","APOAPSIS":"548.412","OBJECT_NAME":"STARLINK-1329","MEAN_ELEMENT_THEORY":"SGP4","MEAN_MOTION_DOT":"-0.00002064","FILE":"3294379","EPOCH":"2022-02-07T11:27:03.977568","NORAD_CAT_ID":"45531","ECCENTRICITY":"0.00016130","ELEMENT_SET_NO":"999","GP_ID":"195478513","INCLINATION":"53.0563","DECAY_DATE":null,"MEAN_MOTION_DDOT":"0.0000000000000","OBJECT_TYPE":"PAYLOAD","RA_OF_ASC_NODE":"320.9287","RCS_SIZE":"LARGE","EPHEMERIS_TYPE":"0","PERIAPSIS":"546.178","REF_FRAME":"TEME","TIME_SYSTEM":"UTC","OBJECT_ID":"2020-025A","COUNTRY_CODE":"US","BSTAR":"-0.00011980000000","TLE_LINE1":"1 45531U 20025A   22038.47712937 -.00002064  00000-0 -11980-3 0  9998","MEAN_ANOMALY":"291.7577","SEMIMAJOR_AXIS":"6925.430","REV_AT_EPOCH":"10033","CENTER_NAME":"EARTH","LAUNCH_DATE":"2020-04-22","CLASSIFICATION_TYPE":"U"},{"MEAN_MOTION_DDOT":"0.0000000000000","DECAY_DATE":null,"INCLINATION":"53.0561","OBJECT_TYPE":"PAYLOAD","NORAD_CAT_ID":"45532","EPOCH":"2022-02-07T19:40:39.758304","FILE":"3294393","MEAN_MOTION_DOT":"-0.00000124","ELEMENT_SET_NO":"999","GP_ID":"195484710","ECCENTRICITY":"0.00014230","OBJECT_NAME":"STARLINK-1338","APOAPSIS":"548.227","TLE_LINE2":"2 45532  53.0561 319.3953 0001423  75.2347 284.8799 15.06391000 99800","SITE":"AFETR","MEAN_ELEMENT_THEORY":"SGP4","ARG_OF_PERICENTER":"75.2347","MEAN_MOTION":"15.06391000","PERIOD":"95.593","CENTER_NAME":"EARTH","LAUNCH_DATE":"2020-04-22","CLASSIFICATION_TYPE":"U","REV_AT_EPOCH":"9980","SEMIMAJOR_AXIS":"6925.376","MEAN_ANOMALY":"284.8799","TLE_LINE1":"1 45532U 20025B   22038.81990461 -.00000124  00000-0  10547-4 0  9990","BSTAR":"0.00001054700000","COUNTRY_CODE":"US","OBJECT_ID":"2020-025B","PERIAPSIS":"546.256","EPHEMERIS_TYPE":"0","RCS_SIZE":"LARGE","TIME_SYSTEM":"UTC","REF_FRAME":"TEME","RA_OF_ASC_NODE":"319.3953"},{"MEAN_MOTION":"15.33277626","PERIOD":"93.916","ARG_OF_PERICENTER":"103.1740","MEAN_ELEMENT_THEORY":"SGP4","APOAPSIS":"466.985","SITE":"AFETR","TLE_LINE2":"2 45533  53.0503 307.9249 0001376 103.1740 256.9414 15.33277626100515","OBJECT_NAME":"STARLINK-1339","ELEMENT_SET_NO":"999","GP_ID":"195479016","ECCENTRICITY":"0.00013760","EPOCH":"2022-02-07T11:09:32.592384","FILE":"3294379","MEAN_MOTION_DOT":"0.00052019","NORAD_CAT_ID":"45533","OBJECT_TYPE":"PAYLOAD","INCLINATION":"53.0503","MEAN_MOTION_DDOT":"0.0000000000000","DECAY_DATE":null,"RA_OF_ASC_NODE":"307.9249","REF_FRAME":"TEME","TIME_SYSTEM":"UTC","RCS_SIZE":"LARGE","PERIAPSIS":"465.101","EPHEMERIS_TYPE":"0","TLE_LINE1":"1 45533U 20025C   22038.46496056  .00052019  00000-0  15955-2 0  9998","OBJECT_ID":"2020-025C","COUNTRY_CODE":"US","BSTAR":"0.00159550000000","MEAN_ANOMALY":"256.9414","SEMIMAJOR_AXIS":"6844.178","CLASSIFICATION_TYPE":"U","LAUNCH_DATE":"2020-04-22","CENTER_NAME":"EARTH","REV_AT_EPOCH":"10051"},{"REF_FRAME":"TEME","TIME_SYSTEM":"UTC","RCS_SIZE":"LARGE","EPHEMERIS_TYPE":"0","PERIAPSIS":"546.151","RA_OF_ASC_NODE":"320.8351","SEMIMAJOR_AXIS":"6925.401","REV_AT_EPOCH":"10033","LAUNCH_DATE":"2020-04-22","CLASSIFICATION_TYPE":"U","CENTER_NAME":"EARTH","BSTAR":"0.00003492300000","COUNTRY_CODE":"US","OBJECT_ID":"2020-025D","TLE_LINE1":"1 45534U 20025D   22038.49923636  .00000238  00000-0  34923-4 0  9995","MEAN_ANOMALY":"285.8891","MEAN_ELEMENT_THEORY":"SGP4","TLE_LINE2":"2 45534  53.0552 320.8351 0001610  74.2276 285.8891 15.06382743100338","SITE":"AFETR","APOAPSIS":"548.381","OBJECT_NAME":"STARLINK-1341","PERIOD":"95.593","MEAN_MOTION":"15.06382743","ARG_OF_PERICENTER":"74.2276","OBJECT_TYPE":"PAYLOAD","INCLINATION":"53.0552","DECAY_DATE":null,"MEAN_MOTION_DDOT":"0.0000000000000","ECCENTRICITY":"0.00016100","GP_ID":"195478263","ELEMENT_SET_NO":"999","MEAN_MOTION_DOT":"0.00000238","EPOCH":"2022-02-07T11:58:54.021504","FILE":"3294379","NORAD_CAT_ID":"45534"},{"MEAN_ELEMENT_THEORY":"SGP4","APOAPSIS":"548.321","TLE_LINE2":"2 45535  53.0539 320.7629 0001541  62.1150 297.9995 15.06386913100344","SITE":"AFETR","OBJECT_NAME":"STARLINK-1350","MEAN_MOTION":"15.06386913","PERIOD":"95.593","ARG_OF_PERICENTER":"62.1150","OBJECT_TYPE":"PAYLOAD","INCLINATION":"53.0539","MEAN_MOTION_DDOT":"0.0000000000000","DECAY_DATE":null,"GP_ID":"195478014","ELEMENT_SET_NO":"999","ECCENTRICITY":"0.00015410","EPOCH":"2022-02-07T12:25:26.330304","FILE":"3294379","MEAN_MOTION_DOT":"-0.00000450","NORAD_CAT_ID":"45535","REF_FRAME":"TEME","TIME_SYSTEM":"UTC","RCS_SIZE":"LARGE","PERIAPSIS":"546.186","EPHEMERIS_TYPE":"0","RA_OF_ASC_NODE":"320.7629","SEMIMAJOR_AXIS":"6925.389","CLASSIFICATION_TYPE":"U","LAUNCH_DATE":"2020-04-22","CENTER_NAME":"EARTH","REV_AT_EPOCH":"10034","TLE_LINE1":"1 45535U 20025E   22038.51766586 -.00000450  00000-0 -11337-4 0  9990","BSTAR":"-0.00001133700000","COUNTRY_CODE":"US","OBJECT_ID":"2020-025E","MEAN_ANOMALY":"297.9995"},{"MEAN_MOTION_DDOT":"0.0000000000000","DECAY_DATE":null,"INCLINATION":"53.0552","OBJECT_TYPE":"PAYLOAD","NORAD_CAT_ID":"45536","MEAN_MOTION_DOT":"-0.00000994","EPOCH":"2022-02-07T02:57:29.972448","FILE":"3294379","ECCENTRICITY":"0.00015910","ELEMENT_SET_NO":"999","GP_ID":"195479265","OBJECT_NAME":"STARLINK-1352","SITE":"AFETR","TLE_LINE2":"2 45536  53.0552 322.5216 0001591  64.2378 295.8775 15.06384155100273","APOAPSIS":"548.364","MEAN_ELEMENT_THEORY":"SGP4","ARG_OF_PERICENTER":"64.2378","PERIOD":"95.593","MEAN_MOTION":"15.06384155","REV_AT_EPOCH":"10027","LAUNCH_DATE":"2020-04-22","CENTER_NAME":"EARTH","CLASSIFICATION_TYPE":"U","SEMIMAJOR_AXIS":"6925.397","MEAN_ANOMALY":"295.8775","COUNTRY_CODE":"US","BSTAR":"-0.00004787300000","OBJECT_ID":"2020-025F","TLE_LINE1":"1 45536U 20025F   22038.12326357 -.00000994  00000-0 -47873-4 0  9993","EPHEMERIS_TYPE":"0","PERIAPSIS":"546.160","RCS_SIZE":"LARGE","TIME_SYSTEM":"UTC","REF_FRAME":"TEME","RA_OF_ASC_NODE":"322.5216"},{"FILE":"3294397","EPOCH":"2022-02-07T02:26:33.664992","MEAN_MOTION_DOT":"0.00018233","NORAD_CAT_ID":"45537","GP_ID":"195484407","ELEMENT_SET_NO":"999","ECCENTRICITY":"0.00017540","INCLINATION":"53.0009","DECAY_DATE":null,"MEAN_MOTION_DDOT":"0.0000000000000","OBJECT_TYPE":"PAYLOAD","MEAN_MOTION":"15.17283519","PERIOD":"94.906","ARG_OF_PERICENTER":"66.2991","APOAPSIS":"515.266","TLE_LINE2":"2 45537  53.0009 290.5021 0001754  66.2991 293.8185 15.17283519100124","SITE":"AFETR","OBJECT_NAME":"STARLINK-1353","MEAN_ELEMENT_THEORY":"SGP4","TLE_LINE1":"1 45537U 20025G   22038.10177853  .00018233  00000-0  91746-3 0  9997","OBJECT_ID":"2020-025G","COUNTRY_CODE":"US","BSTAR":"0.00091746000000","MEAN_ANOMALY":"293.8185","SEMIMAJOR_AXIS":"6892.192","LAUNCH_DATE":"2020-04-22","CENTER_NAME":"EARTH","CLASSIFICATION_TYPE":"U","REV_AT_EPOCH":"10012","RA_OF_ASC_NODE":"290.5021","RCS_SIZE":"LARGE","PERIAPSIS":"512.848","EPHEMERIS_TYPE":"0","REF_FRAME":"TEME","TIME_SYSTEM":"UTC"}];
